NORAD_CAT_ID,OBJECT_NAME,OBJECT_TYPE,EPOCH,MEAN_MOTION,ECCENTRICITY,INCLINATION,RA_OF_ASC_NODE,ARG_OF_PERICENTER,MEAN_ANOMALY,BSTAR,MEAN_MOTION_DOT,MEAN_MOTION_DDOT,TLE_LINE0,TLE_LINE1,TLE_LINE2,SEMIMAJOR_AXIS,PERIOD,APOGEE,PERIGEE,DECAYED
52477.0,STARLINK-3860,PAYLOAD,2022-07-29 14:00:01,15.35590857,0.0001515,53.2171,211.9962,44.5823,250.3762,-0.033298,-0.01072404,0.0,0 STARLINK-3860,1 52477U 22049AC  22210.58334491 -.01072404  00000-0 -33298-1 0  9992,2 52477  53.2171 211.9962 0001515  44.5823 250.3762 15.35590857  1301,6837.303000000001,93.775,460.204,458.132,0.0
52477.0,STARLINK-3860,PAYLOAD,2022-07-29 22:00:00,15.34826691,0.0001568,53.2172,210.43400000000003,39.0773,299.1567,-0.033878,-0.01065232,0.0,0 STARLINK-3860,1 52477U 22049AC  22210.91667824 -.01065232  00000-0 -33878-1 0  9993,2 52477  53.2172 210.4340 0001568  39.0773 299.1567 15.34826691 13446,6839.571999999999,93.822,462.51,460.365,0.0
52477.0,STARLINK-3860,PAYLOAD,2022-07-30 14:00:01,15.33310145,0.0001576999999999,53.2172,207.3196,40.6637,21.376,-0.035661,-0.01068047,0.0,0 STARLINK-3860,1 52477U 22049AC  22211.58334491 -.01068047  00000-0 -35661-1 0  9997,2 52477  53.2172 207.3196 0001577  40.6637  21.3760 15.33310145  1300,6844.081,93.914,467.026,464.867,0.0
52477.0,STARLINK-3860,PAYLOAD,2022-07-30 22:00:00,15.32549448,0.0001768,53.2174,205.7629,37.5958,64.9802,-0.036491,-0.01067004,0.0,0 STARLINK-3860,1 52477U 22049AC  22211.91667824 -.01067004  00000-0 -36491-1 0  9997,2 52477  53.2174 205.7629 0001768  37.5958  64.9802 15.32549448 13591,6846.346,93.961,469.421,467.001,0.0
52477.0,STARLINK-3860,PAYLOAD,2022-07-31 14:00:01,15.31031081,0.0001776999999999,53.2172,202.6592,42.6901,138.2164,-0.038279,-0.01067056,0.0,0 STARLINK-3860,1 52477U 22049AC  22212.58334491 -.01067056  00000-0 -38279-1 0  9995,2 52477  53.2172 202.6592 0001777  42.6901 138.2164 15.31031081  1309,6850.871999999999,94.054,473.954,471.519,0.0
52477.0,STARLINK-3860,PAYLOAD,2022-07-31 22:00:00,15.30271433,0.0001641,53.2173,201.108,48.8776,169.8265,-0.039202,-0.01067114,0.0,0 STARLINK-3860,1 52477U 22049AC  22212.91667824 -.01067114  00000-0 -39202-1 0  9993,2 52477  53.2173 201.1080 0001641  48.8776 169.8265 15.30271433 13743,6853.139,94.101,476.128,473.879,0.0
52477.0,STARLINK-3860,PAYLOAD,2022-08-01 14:00:01,15.28753878,0.0001472,53.2172,198.015,50.4938,241.0648,-0.0411889999999999,-0.01069393,0.0,0 STARLINK-3860,1 52477U 22049AC  22213.58334491 -.01069393  00000-0 -41189-1 0  9996,2 52477  53.2172 198.0150 0001472  50.4938 241.0648 15.28753878  1307,6857.6730000000025,94.194,480.548,478.529,0.0
52477.0,STARLINK-3860,PAYLOAD,2022-08-01 22:00:00,15.27990833,0.0001629,53.2175,196.4694,39.8133,286.8058,-0.0419,-0.01063164,0.0,0 STARLINK-3860,1 52477U 22049AC  22213.91667824 -.01063164  00000-0 -41900-1 0  9993,2 52477  53.2175 196.4694 0001629  39.8133 286.8058 15.27990833  1302,6859.956,94.241,482.939,480.704,0.0
52477.0,STARLINK-3860,PAYLOAD,2022-08-02 14:00:01,15.26474247,0.0001654,53.2173,193.3869,37.6112,356.3863,-0.044073,-0.01067238,0.0,0 STARLINK-3860,1 52477U 22049AC  22214.58334491 -.01067238  00000-0 -44073-1 0  9998,2 52477  53.2173 193.3869 0001654  37.6112 356.3863 15.26474247  1303,6864.499,94.335,487.5,485.229,0.0
52477.0,STARLINK-3860,PAYLOAD,2022-08-03 14:00:01,15.24194601,0.0001737,53.2173,188.7748,42.9353,85.2871,-0.0471,-0.01064779,0.0,0 STARLINK-3860,1 52477U 22049AC  22215.58334491 -.01064779  00000-0 -47100-1 0  9990,2 52477  53.2173 188.7748 0001737  42.9353  85.2871 15.24194601 14150,6871.342,94.476,494.401,492.013,0.0
52477.0,STARLINK-3860,PAYLOAD,2022-08-03 22:00:01,15.23434831,0.0001797,53.2176,187.2401,43.8483,114.0206,-0.048129,-0.01063656,0.0,0 STARLINK-3860,1 52477U 22049AC  22215.91668981 -.01063656  00000-0 -48129-1 0  9996,2 52477  53.2176 187.2401 0001797  43.8483 114.0206 15.23434831  1300,6873.626,94.523,496.727,494.256,0.0
52477.0,STARLINK-3860,PAYLOAD,2022-08-04 14:00:01,15.21916886,0.0001602,53.2174,184.1787,53.6483,160.5844,-0.050469,-0.01065841,0.0,0 STARLINK-3860,1 52477U 22049AC  22216.58334491 -.01065841  00000-0 -50469-1 0  9994,2 52477  53.2174 184.1787 0001602  53.6483 160.5844 15.21916886 14306,6878.196,94.618,501.163,498.959,0.0
52477.0,STARLINK-3860,PAYLOAD,2022-08-04 22:00:00,15.21155974,0.0001674,53.2175,182.6496,48.7697,192.3082,-0.051437,-0.01062432,0.0,0 STARLINK-3860,1 52477U 22049AC  22216.91667824 -.01062432  00000-0 -51437-1 0  9999,2 52477  53.2175 182.6496 0001674  48.7697 192.3082 15.21155974  1304,6880.49,94.665,503.506,501.203,0.0
52477.0,STARLINK-3860,PAYLOAD,2022-08-05 14:00:01,15.19638853,0.0001498,53.2174,179.5987,51.3108,240.7817,-0.054023,-0.01066765,0.0,0 STARLINK-3860,1 52477U 22049AC  22217.58335648 -.01066765  00000-0 -54023-1 0  9996,2 52477  53.2174 179.5987 0001498  51.3108 240.7817 15.19638853  1307,6885.068,94.759,507.965,505.902,0.0
52477.0,STARLINK-3860,PAYLOAD,2022-08-05 22:00:00,15.18876854,0.0001551,53.2177,178.075,47.2113,268.9254,-0.054925,-0.01061229,0.0,0 STARLINK-3860,1 52477U 22049AC  22217.91667824 -.01061229  00000-0 -54925-1 0  9998,2 52477  53.2177 178.0750 0001551  47.2113 268.9254 15.18876854  1303,6887.371,94.807,510.304,508.168,0.0
52477.0,STARLINK-3860,PAYLOAD,2022-08-06 14:00:01,15.17359655,0.0001449,53.2174,175.0346,48.4758,313.1363,-0.057655,-0.01079169,0.0,0 STARLINK-3860,1 52477U 22049AC  22218.58334491 -.01079169  00000-0 -57655-1 0  9998,2 52477  53.2174 175.0346 0001449  48.4758 313.1363 15.17359655 14618,6891.9609999999975,94.902,514.825,512.827,0.0
52477.0,STARLINK-3860,PAYLOAD,2022-08-06 22:00:00,15.16597961,0.0001646,53.2176,173.5166,40.8573,342.1242,-0.058646,-0.01074322,0.0,0 STARLINK-3860,1 52477U 22049AC  22218.91667824 -.01074322  00000-0 -58646-1 0  9991,2 52477  53.2176 173.5166 0001646  40.8573 342.1242 15.16597961  1306,6894.269,94.949,517.268,514.999,0.0
52477.0,STARLINK-3860,PAYLOAD,2022-08-07 12:09:27,15.17276798,0.0002331999999999,53.2091,170.8592,20.6727,339.4363,-0.016257,-0.00314245,0.0,0 STARLINK-3860,1 52477U 22049AC  22219.50656920 -.00314245  00000-0 -16257-1 0  9994,2 52477  53.2091 170.8592 0002332  20.6727 339.4363 15.17276798 14754,6892.212,94.907,515.684,512.47,0.0
52477.0,STARLINK-3860,PAYLOAD,2022-08-07 22:00:00,15.14319092,0.000156,53.2175,168.9739,50.3961,31.2162,-0.062566,-0.01073961,0.0,0 STARLINK-3860,1 52477U 22049AC  22219.91667824 -.01073961  00000-0 -62566-1 0  9996,2 52477  53.2175 168.9739 0001560  50.3961  31.2162 15.14319092 14813,6901.184,95.092,524.125,521.972,0.0
52477.0,STARLINK-3860,PAYLOAD,2022-08-08 14:00:01,15.12800467,0.0001609,53.2174,165.9543,50.2865,65.9125,-0.0653779999999999,-0.01075033,0.0,0 STARLINK-3860,1 52477U 22049AC  22220.58335648 -.01075033  00000-0 -65378-1 0  9993,2 52477  53.2174 165.9543 0001609  50.2865  65.9125 15.12800467  1300,6905.801,95.188,528.7769999999998,526.555,0.0
52477.0,STARLINK-3860,PAYLOAD,2022-08-08 20:00:01,15.12229191,0.0001635,53.2173,164.8233,43.7483,354.4565,-0.066209,-0.01071639,0.0,0 STARLINK-3860,1 52477U 22049AC  22220.83335648 -.01071639  00000-0 -66209-1 0  9993,2 52477  53.2173 164.8233 0001635  43.7483 354.4565 15.12229191 14953,6907.54,95.224,530.535,528.276,0.0
52477.0,STARLINK-3860,PAYLOAD,2022-08-08 22:00:00,15.12040235,0.0001776,53.2175,164.447,45.5445,86.4846,-0.066683,-0.0107348999999999,0.0,0 STARLINK-3860,1 52477U 22049AC  22220.91667824 -.01073490  00000-0 -66683-1 0  9999,2 52477  53.2175 164.4470 0001776  45.5445  86.4846 15.12040235  1307,6908.116,95.236,531.2080000000002,528.754,0.0
52477.0,STARLINK-3860,PAYLOAD,2022-08-09 14:00:01,15.10521235,0.0001624,53.2174,161.438,53.207,107.8698,-0.0695559999999999,-0.01073269,0.0,0 STARLINK-3860,1 52477U 22049AC  22221.58334491 -.01073269  00000-0 -69556-1 0  9990,2 52477  53.2174 161.4380 0001624  53.2070 107.8698 15.10521235  1300,6912.746,95.331,535.734,533.489,0.0
52477.0,STARLINK-3860,PAYLOAD,2022-08-09 22:00:00,15.09664735,0.0001645,53.2176,159.937,47.8947,126.3548,-0.0535299999999999,-0.00813503,0.0,0 STARLINK-3860,1 52477U 22049AC  22221.91667824 -.00813503  00000-0 -53530-1 0  9993,2 52477  53.2176 159.9370 0001645  47.8947 126.3548 15.09664735  1309,6915.361,95.385,538.363,536.0880000000002,0.0
52477.0,STARLINK-3860,PAYLOAD,2022-08-10 06:00:00,15.08979439,0.0001478,53.2175,158.44,52.6559,133.8383,-0.013899,-0.00215758,0.0,0 STARLINK-3860,1 52477U 22049AC  22222.25001157 -.00215758  00000-0 -13899-1 0  9994,2 52477  53.2175 158.4400 0001478  52.6559 133.8383 15.08979439 15161,6917.454000000002,95.429,540.342,538.297,0.0
52477.0,STARLINK-3860,PAYLOAD,2022-08-10 14:00:01,15.08836444,0.0001636999999999,53.2174,156.9417,48.5565,149.6043,4.392600000000001e-05,4.11e-06,0.0,0 STARLINK-3860,1 52477U 22049AC  22222.58334491  .00000411  00000-0  43926-4 0  9993,2 52477  53.2174 156.9417 0001637  48.5565 149.6043 15.08836444  1306,6917.891,95.438,540.889,538.624,0.0
52477.0,STARLINK-3860,PAYLOAD,2022-08-10 17:07:18,15.08866955,0.0001105999999999,53.2122,156.3676,31.5603,153.4962,-0.00090058,-0.00014602,0.0,0 STARLINK-3860,1 52477U 22049AC  22222.71341435 -.00014602  00000-0 -90058-3 0  9990,2 52477  53.2122 156.3676 0001106  31.5603 153.4962 15.08866955 15236,6917.7980000000025,95.436,540.428,538.898,0.0
52477.0,STARLINK-3860,PAYLOAD,2022-08-10 22:00:00,15.08882417,0.0001237,53.2127,155.4558,37.5864,172.1801,-0.0051078,-0.00080761,0.0,0 STARLINK-3860,1 52477U 22049AC  22222.91667824 -.00080761  00000-0 -51078-2 0  9992,2 52477  53.2127 155.4558 0001237  37.5864 172.1801 15.08882417  1304,6917.751,95.435,540.471,538.76,0.0
52477.0,STARLINK-3860,PAYLOAD,2022-08-11 06:00:02,15.08792469,0.0001529,53.2129,153.9606,35.7018,185.7485,0.0018086999999999,0.00028577,0.0,0 STARLINK-3860,1 52477U 22049AC  22223.25002315  .00028577  00000-0  18087-2 0  9996,2 52477  53.2129 153.9606 0001529  35.7018 185.7485 15.08792469 15319,6918.026,95.441,540.948,538.8330000000002,0.0
